0 RADUGA 29
1 22557U 93013A   13281.72275186 -.00000370  00000-0  10000-3 0  1199
2 22557 013.8388 028.5641 0005934 046.3855 313.6641 01.00355184 75229
0 RADUGA 29
1 22557U 93013A   13286.70489283 -.00000382  00000-0  10000-3 0  1202
2 22557 013.8467 028.5075 0006555 059.3455 300.6905 01.00351589 75277
0 RADUGA 29
1 22557U 93013A   13289.69429496 -.00000383  00000-0  10000-3 0  1215
2 22557 013.8504 028.4732 0006866 059.5078 300.5388 01.00350082 75301
0 RADUGA 29
1 22557U 93013A   13290.69070416  .00000000  00000-0  10000-3 0  1227
2 22557 013.8497 028.4599 0005965 046.1851 313.8411 01.00346548 75310
0 RADUGA 29
1 22557U 93013A   13290.69074987 -.00000383  00000-0  10000-3 0  1230
2 22557 013.8509 028.4641 0005552 046.6487 313.3723 01.00349779 75314
0 RADUGA 29
1 22557U 93013A   13292.68368493 -.00000382  00000-0  10000-3 0  1249
2 22557 013.8525 028.4377 0006298 048.7406 311.3049 01.00349348 75333
